ORBCOMM FM114           
1 41179U 15081A   24353.29244366  .00001724  00000+0  41135-3 0  9990
2 41179  47.0037  60.9224 0003170 252.7297 107.3241 14.57632217478075
ORBCOMM FM110           
1 41182U 15081D   24353.33697507  .00002392  00000+0  55605-3 0  9997
2 41182  47.0020  60.0888 0001426 338.1703  21.9121 14.57651661477959
ORBCOMM FM112           
1 41184U 15081F   24353.24772405  .00002209  00000+0  51726-3 0  9997
2 41184  46.9993 329.5553 0002062 289.7392  70.3271 14.57574970479269
ORBCOMM FM113           
1 41185U 15081G   24353.36223465  .00001897  00000+0  44931-3 0  9990
2 41185  47.0018 329.3192 0001980 309.1118  50.9591 14.57579395479263
ORBCOMM FM108           
1 41187U 15081J   24353.10925936  .00002095  00000+0  49220-3 0  9993
2 41187  47.0031 241.7781 0002533 190.5394 169.5438 14.57611720480374
ORBCOMM FM117           
1 41188U 15081K   24353.07596867  .00002002  00000+0  47189-3 0  9997
2 41188  46.9993 240.7628 0002903 205.2036 154.8708 14.57612039480413
ORBCOMM FM116           
1 41189U 15081L   24353.27137350  .00002308  00000+0  53857-3 0  9996
2 41189  47.0025 329.6821 0002872 297.9361  62.1234 14.57589980479251
CHUBUSAT-2              
1 41338U 16012B   24353.16060299  .00010106  00000+0  56152-3 0  9998
2 41338  31.0008 283.3306 0011055 287.1219  72.8208 15.12378376485434
CHUBUSAT-3              
1 41339U 16012C   24353.19956308  .00009230  00000+0  52769-3 0  9993
2 41339  31.0074 283.0821 0011083 289.6491  70.2951 15.11334783485314
HORYU-4                 
1 41340U 16012D   24352.93305621  .00027231  00000+0  10211-2 0  9998
2 41340  30.9990 210.3376 0008622  46.2359 313.8996 15.26025912486148
ZIYUAN 3-2 (ZY 3-2)     
1 41556U 16033A   24353.39324269  .00013800  00000+0  61633-3 0  9992
2 41556  97.4392  66.7770 0008132  56.3506 303.8504 15.21438586475001
CARTOSAT-2C             
1 41599U 16040A   24353.31225701  .00010049  00000+0  47857-3 0  9994
2 41599  97.4497  50.1758 0012913 232.3547 127.6516 15.19263466470831
LAPAN-A3                
1 41603U 16040E   24353.32132445  .00005678  00000+0  21156-3 0  9999
2 41603  97.1384 358.9667 0012020 157.9241 202.2519 15.27759855471317
BIROS                   
1 41604U 16040F   24353.35256811  .00033033  00000+0  61975-3 0  9996
2 41604  97.1064  17.5049 0009173  93.8176 266.4124 15.48522036472570
M3MSAT                  
1 41605U 16040G   24353.05392483  .00034525  00000+0  64859-3 0  9991
2 41605  97.1036  14.3267 0009091 109.1514 251.0722 15.48475834472345
GAOFEN-3                
1 41727U 16049A   24353.35516019  .00000215  00000+0  78486-4 0  9992
2 41727  98.4050 358.3003 0001182  81.5764 278.5560 14.42215614439979
QSS (MOZI)              
1 41731U 16051A   24353.34577577  .00018928  00000+0  40309-3 0  9997
2 41731  97.3047 265.2027 0006081 286.0491  74.0088 15.44967979465055
PRATHAM                 
1 41783U 16059A   24353.02547002  .00001750  00000+0  32684-3 0  9999
2 41783  97.8287   3.7628 0032563 154.6473 205.6338 14.65784081439468
ALSAT 1N                
1 41789U 16059G   24353.29632644  .00002069  00000+0  37029-3 0  9993
2 41789  97.8153  10.3403 0027791 129.8992 230.4663 14.67611024439889
CAS-2T & KS-1Q          
1 41847U 16066G   24353.27204380  .00002172  00000+0  32124-3 0  9992
2 41847  98.4420  63.1767 0349033 342.5814  16.3641 14.42557800426023
YUNHAI-1 01             
1 41857U 16068A   24353.29231634  .00000653  00000+0  25377-3 0  9993
2 41857  98.5921 357.9673 0006192 164.7182 195.4190 14.33141131423659
RESOURCESAT-2A          
1 41877U 16074A   24353.33259297  .00000383  00000+0  19434-3 0  9999
2 41877  98.6282  62.8961 0001635 137.8479 222.2824 14.21657721416740
TANSAT                  
1 41898U 16081A   24353.38268095  .00001047  00000+0  23224-3 0  9991
2 41898  98.4939 327.9973 0020279 192.1126 167.9588 14.59144349425005
JILIN-1 03              
1 41914U 17002B   24353.59330709  .00014699  00000+0  57399-3 0  9996
2 41914  97.2077   3.2215 0007567 346.2123  13.8908 15.25964065438223
KAIDUN 1                
1 41915U 17002C   24353.39680702  .00037847  00000+0  87966-3 0  9999
2 41915  97.1812  16.8331 0003046 309.6783  50.4196 15.42237076439133
CARTOSAT-2D             
1 41948U 17008A   24353.34294797  .00008873  00000+0  42370-3 0  9998
2 41948  97.4220  49.2545 0005375 346.7867  13.3226 15.19264038434706
ZHUHAI-1 02 (CAS-4B)    
1 42759U 17034B   24353.19194540  .00043752  00000+0  10085-2 0  9998
2 42759  43.0132 257.5032 0014457 171.6343 188.4758 15.41770362415661
ZHUHAI-1 01 (CAS-4A)    
1 42761U 17034D   24353.17158144  .00044385  00000+0  10124-2 0  9996
2 42761  43.0166 255.7432 0015544 178.8413 181.2483 15.42061759415660
CARTOSAT-2E             
1 42767U 17036C   24353.36030752  .00009394  00000+0  44804-3 0  9993
2 42767  97.4138  49.6654 0003734  53.9674 306.1906 15.19295586415270
D-SAT                   
1 42794U 17036AF  24353.40920920  .00011468  00000+0  70902-3 0  9996
2 42794  97.4978 329.2429 0098855 240.6720 118.4604 15.05947633408390
IRIDIUM 113             
1 42803U 17039A   24352.95285971  .00000127  00000+0  38347-4 0  9997
2 42803  86.3995 190.4249 0002433  80.5456 279.6014 14.34218959392894
NORSAT 2                
1 42828U 17042D   24353.22287701  .00015290  00000+0  10147-2 0  9995
2 42828  97.3764 171.0126 0013781 141.7180 218.5029 15.07249598405086
TECHNOSAT               
1 42829U 17042E   24353.21985793  .00006915  00000+0  56693-3 0  9992
2 42829  97.3849 164.4166 0012984 167.2615 192.8939 14.99483019404723
FLYING LAPTOP           
1 42831U 17042G   24353.31866086  .00004633  00000+0  40526-3 0  9992
2 42831  97.3898 163.9245 0012247 170.1964 189.9500 14.97135271404660
WNISAT 1R               
1 42835U 17042L   24352.97877952  .00004989  00000+0  43314-3 0  9993
2 42835  97.3889 163.4937 0011717 166.5558 193.5979 14.97403216404642
LEMUR-2-GREENBERG       
1 42837U 17042N   24353.28936175  .00017535  00000+0  10292-2 0  9992
2 42837  97.3583 174.1891 0014011 117.2180 243.0480 15.11709181405384
LEMUR-2-FURIAUS         
1 42840U 17042R   24353.07250833  .00018052  00000+0  11102-2 0  9999
2 42840  97.3592 173.3990 0011611 168.7241 191.4251 15.10032902405269
CORVUS BC2              
1 42846U 17042X   24353.22032743  .00007076  00000+0  56254-3 0  9992
2 42846  97.3670 168.4685 0011954 153.2668 206.9175 15.00667563405016
CORVUS BC1              
1 42847U 17042Y   24353.42963856  .00006948  00000+0  55041-3 0  9993
2 42847  97.3672 169.0828 0011417 126.7262 233.5013 15.00817000405069
VRSS-2                  
1 42954U 17060A   24353.36701086  .00002153  00000+0  29336-3 0  9992
2 42954  97.7294  42.7242 0019081  82.9335 277.4046 14.79569220387692
MOHAMMED VI-A           
1 43005U 17070A   24353.34629249  .00001852  00000+0  26976-3 0  9991
2 43005  97.9576  62.4952 0001455  83.7071 276.4305 14.77037462383402
FENGYUN 3D              
1 43010U 17072A   24353.35601589  .00000266  00000+0  14759-3 0  9991
2 43010  98.9381 309.3340 0001859 137.3857 222.7463 14.19522274367545
CZ-4C R/B               
1 43012U 17072C   24353.26474166  .00000824  00000+0  17257-3 0  9998
2 43012  98.5866  72.9646 0124787  33.1105 327.7825 14.57909179377069
NOAA 20 (JPSS-1)        
1 43013U 17073A   24353.37603931  .00000228  00000+0  12886-3 0  9997
2 43013  98.7258 288.3384 0002138  68.0883 292.0520 14.19520686367036
MIRATA                  
1 43015U 17073C   24353.23331923  .00055487  00000+0  17649-2 0  9991
2 43015  97.5659 237.4720 0129533 346.1119  13.6567 15.24554051384194
MAKERSAT 0              
1 43016U 17073D   24353.19251246  .00024905  00000+0  11861-2 0  9997
2 43016  97.5443 227.7379 0170131  17.9687 342.7455 15.07162880383547
RADFXSAT (FOX-1B)       
1 43017U 17073E   24353.16825057  .00015556  00000+0  85848-3 0  9991
2 43017  97.5469 222.5775 0192349  35.7005 325.6905 14.99534571383175
EAGLESAT 1              
1 43018U 17073F   24353.37762349  .00052918  00000+0  17534-2 0  9998
2 43018  97.5661 237.1388 0134215 351.4531   8.4419 15.22784962383952
JILIN-1 04              
1 43022U 17074A   24353.41004359  .00015792  00000+0  60599-3 0  9998
2 43022  97.4833  84.6370 0005406 356.4468   3.6731 15.26551138390577
JILIN-1 05              
1 43023U 17074B   24353.56754993  .00008989  00000+0  36224-3 0  9999
2 43023  97.4861  85.1862 0006112  12.8691 347.2702 15.25058765390591
JILIN-1 06              
1 43024U 17074C   24353.57345290  .00010915  00000+0  47059-3 0  9997
2 43024  97.4849  83.2161 0008778  17.9801 342.1744 15.22698614390475
IRIDIUM 116             
1 43072U 17083C   24352.64841376  .00000334  00000+0  11237-3 0  9996
2 43072  86.3990 190.4172 0001860  93.6744 266.4665 14.34219837365837
IRIDIUM 130             
1 43073U 17083D   24353.31438779 -.00000054  00000+0 -26331-4 0  9994
2 43073  86.4000 190.3607 0001702  86.1483 273.9908 14.34216793365870
LKW-2                   
1 43080U 17084A   24353.34179322  .00012174  00000+0  50692-3 0  9992
2 43080  97.1982  46.7191 0004369 126.1244 234.0399 15.23866375388558
SUPERVIEW-1 03          
1 43099U 18002A   24353.38584997  .00015789  00000+0  68799-3 0  9997
2 43099  97.3575  74.4923 0069442 321.1742  38.4515 15.20070438384930
SUPERVIEW-1 04          
1 43100U 18002B   24353.30094572  .00079274  00000+0  10669-2 0  9998
2 43100  97.3610  76.9133 0000723 193.6551 166.4685 15.57599726385061
CARTOSAT-2F             
1 43111U 18004A   24353.32702720  .00009865  00000+0  47101-3 0  9996
2 43111  97.4602  49.6431 0000834  24.5024 335.6250 15.19251261384450
CARBONITE 2             
1 43115U 18004E   24353.16931427  .00055812  00000+0  70903-3 0  9999
2 43115  97.2431  65.2261 0004322 317.0661  43.0258 15.59223215386429
LKW-3                   
1 43146U 18006A   24353.36017802  .00014133  00000+0  60864-3 0  9995
2 43146  97.5939 129.6713 0003110 231.7077 128.3880 15.22706637385334
